{"fetched_at":"2026-03-30T06:02:59Z","count":15439,"tles":[{"name":"STARLINK-30449","line1":"1 57903U 23146N   26087.74004673  .00000227  00000+0  18127-4 0  9997","line2":"2 57903  43.0000 206.2738 0001259 279.2699  80.8009 15.26750366138910","category":"Starlink"}]}